[{"OBJECT_NAME":"IRIDIUM 108","OBJECT_ID":"2017-003H","EPOCH":"2026-03-09T14:45:22.333248","MEAN_MOTION":14.34217052,"ECCENTRICITY":0.000234,"INCLINATION":86.3916,"RA_OF_ASC_NODE":98.4141,"ARG_OF_PERICENTER":95.4169,"MEAN_ANOMALY":264.7294,"EPHEMERIS_TYPE":0,"CLASSIFICATION_TYPE":"U","NORAD_CAT_ID":41924,"ELEMENT_SET_NO":999,"REV_AT_EPOCH":48083,"BSTAR":9.2737e-7,"MEAN_MOTION_DOT":2.2e-7,"MEAN_MOTION_DDOT":0},{"OBJECT_NAME":"FENGYUN 1C DEB","OBJECT_ID":"1999-025SG","EPOCH":"2026-03-09T13:27:58.576896","MEAN_MOTION":14.39594711,"ECCENTRICITY":0.00821732,"INCLINATION":98.2088,"RA_OF_ASC_NODE":286.342,"ARG_OF_PERICENTER":178.4273,"MEAN_ANOMALY":181.719,"EPHEMERIS_TYPE":0,"CLASSIFICATION_TYPE":"U","NORAD_CAT_ID":30127,"ELEMENT_SET_NO":999,"REV_AT_EPOCH":98484,"BSTAR":0.0025363227,"MEAN_MOTION_DOT":8.209e-5,"MEAN_MOTION_DDOT":0}]
